ORBCOMM FM06            
1 25118U 97084G   26193.32638547  .00000536  00000+0  18331-3 0  9996
2 25118  45.0142 291.6869 0001341 223.9962 167.8068 14.47623379498034
ORBCOMM FM04            
1 25159U 98007C   26192.84966608  .00000357  00000+0  16782-3 0  9994
2 25159 107.9632 220.1801 0041911 282.5727  77.0728 14.35780960480135
ORBCOMM FM19            
1 25415U 98046C   26193.22188021  .00000477  00000+0  19670-3 0  9992
2 25415  44.9931 124.5568 0003329  42.9087 108.5699 14.39538200460381
ORBCOMM FM20            
1 25416U 98046D   26193.23044279  .00000323  00000+0  15202-3 0  9997
2 25416  44.9931 132.7157 0001680 341.6287  18.4501 14.38097395460392
ORBCOMM FM27            
1 25481U 98053G   26192.48362371  .00000334  00000+0  15260-3 0  9995
2 25481  45.0035 219.9500 0002441 278.1343  81.9229 14.39181226453734
ORBCOMM FM32            
1 25982U 99065C   26193.03773816  .00000318  00000+0  15326-3 0  9992
2 25982  45.0156  55.6091 0005402 176.7380 183.3505 14.37165596390664
ORBCOMM FM109           
1 40086U 14040A   26192.41116868  .00000148  00000+0  67459-4 0  9999
2 40086  47.0045 336.9567 0001649 310.9227  49.1516 14.58870325637884
ORBCOMM FM110           
1 41182U 15081D   26192.62154704  .00000197  00000+0  77907-4 0  9990
2 41182  47.0009 245.9084 0003438 207.7250 152.3453 14.58915508561192
ORBCOMM FM118           
1 41183U 15081E   26191.62866871  .00000111  00000+0  59776-4 0  9995
2 41183  47.0030 250.9400 0002651 164.1790 195.9179 14.58901793561151
ORBCOMM FM112           
1 41184U 15081F   26192.24912345  .00000392  00000+0  11894-3 0  9992
2 41184  46.9978 156.4607 0003891 312.3848  47.6708 14.58935043562469
ORBCOMM FM113           
1 41185U 15081G   26193.25385967  .00000141  00000+0  65989-4 0  9996
2 41185  46.9996 152.0986 0002371 310.5234  49.5445 14.58880263562599
ORBCOMM FM108           
1 41187U 15081J   26193.01045813  .00000304  00000+0  10038-3 0  9990
2 41187  47.0052  64.8300 0002794 310.5793  49.4849 14.58907733563708
ORBCOMM FM117           
1 41188U 15081K   26193.04464983  .00000283  00000+0  96121-4 0  9991
2 41188  47.0015  63.2961 0003250 317.3276  42.7357 14.58894935563757
ORBCOMM FM116           
1 41189U 15081L   26193.23026491  .00000069  00000+0  50766-4 0  9998
2 41189  47.0013 152.2072 0001449 221.9214 138.1561 14.58903801562599
